NORAD_CAT_ID,OBJECT_NAME,OBJECT_TYPE,EPOCH,MEAN_MOTION,ECCENTRICITY,INCLINATION,RA_OF_ASC_NODE,ARG_OF_PERICENTER,MEAN_ANOMALY,BSTAR,MEAN_MOTION_DOT,MEAN_MOTION_DDOT,TLE_LINE0,TLE_LINE1,TLE_LINE2,SEMIMAJOR_AXIS,PERIOD,APOGEE,PERIGEE,DECAYED
49153.0,STARLINK-3072,PAYLOAD,2023-08-09 10:47:04,14.98332007,0.0002739,70.0002,112.7068,264.5937,95.4909,0.00031638,3.684e-05,0.0,0 STARLINK-3072,1 49153U 21082Z   23221.44936210  .00003684  00000-0  31638-3 0  9999,2 49153  70.0002 112.7068 0002739 264.5937  95.4909 14.98332007105666,6950.187,96.107,573.955,570.148,0.0
49153.0,STARLINK-3072,PAYLOAD,2023-08-10 02:48:25,14.98331252,0.000281,69.9998,111.0192,263.5993,96.4846,5.3909e-05,5.5e-06,0.0,0 STARLINK-3072,1 49153U 21082Z   23222.11696418  .00000550  00000-0  53909-4 0  9992,2 49153  69.9998 111.0192 0002810 263.5993  96.4846 14.98331252105761,6950.189,96.107,574.007,570.101,0.0
49153.0,STARLINK-3072,PAYLOAD,2023-08-11 02:50:24,14.98382539,0.0002917,69.9994,108.4946,261.0948,98.9881,-0.00082667,-9.956e-05,0.0,0 STARLINK-3072,1 49153U 21082Z   23223.11834068 -.00009956  00000-0 -82667-3 0  9991,2 49153  69.9994 108.4946 0002917 261.0948  98.9881 14.98382539105912,6950.03,96.104,573.923,569.868,0.0
49153.0,STARLINK-3072,PAYLOAD,2023-08-11 09:14:58,14.98331509,0.0002783,69.9998,107.8213,265.1501,94.934,5.419e-05,5.54e-06,0.0,0 STARLINK-3072,1 49153U 21082Z   23223.38539788  .00000554  00000-0  54190-4 0  9995,2 49153  69.9998 107.8213 0002783 265.1501  94.9340 14.98331509105958,6950.188,96.107,573.987,570.119,0.0
49153.0,STARLINK-3072,PAYLOAD,2023-08-12 09:16:59,14.98332961,0.0002979,69.9997,105.2972,266.0264,94.0555,2.4346e-05,1.98e-06,0.0,0 STARLINK-3072,1 49153U 21082Z   23224.38679686  .00000198  00000-0  24346-4 0  9992,2 49153  69.9997 105.2972 0002979 266.0264  94.0555 14.98332961106104,6950.184,96.107,574.119,569.978,0.0
49153.0,STARLINK-3072,PAYLOAD,2023-08-13 18:55:48,14.98329159,0.0002976,69.9998,101.7632,268.5143,91.5675,8.0176e-05,8.64e-06,0.0,0 STARLINK-3072,1 49153U 21082Z   23225.78875942  .00000864  00000-0  80176-4 0  9993,2 49153  69.9998 101.7632 0002976 268.5143  91.5675 14.98329159106312,6950.195,96.107,574.129,569.992,0.0
49153.0,STARLINK-3072,PAYLOAD,2023-08-15 01:22:21,14.98334861,0.0003094,69.9996,98.5646,269.4544,90.626,9.3118e-05,1.018e-05,0.0,0 STARLINK-3072,1 49153U 21082Z   23227.05719514  .00001018  00000-0  93118-4 0  9999,2 49153  69.9996  98.5646 0003094 269.4544  90.6260 14.98334861106502,6950.178,96.107,574.193,569.892,0.0
49153.0,STARLINK-3072,PAYLOAD,2023-08-16 01:24:22,14.98336865,0.0003105,69.9995,96.0392,269.4444,90.6359,0.00011518,1.282e-05,0.0,0 STARLINK-3072,1 49153U 21082Z   23228.05859205  .00001282  00000-0  11518-3 0  9998,2 49153  69.9995  96.0392 0003105 269.4444  90.6359 14.98336865106655,6950.172,96.107,574.195,569.879,0.0
49153.0,STARLINK-3072,PAYLOAD,2023-08-16 22:14:07,14.98331268,0.0003006,69.9979,93.8516,266.3822,93.6993,2.1673e-05,1.66e-06,0.0,0 STARLINK-3072,1 49153U 21082Z   23228.92647671  .00000166  00000-0  21673-4 0  9990,2 49153  69.9979  93.8516 0003006 266.3822  93.6993 14.98331268106789,6950.189,96.107,574.143,569.965,0.0
49153.0,STARLINK-3072,PAYLOAD,2023-08-18 01:28:23,14.98338422,0.0003006,69.9983,90.9896,266.4727,93.6088,8.5039e-05,9.22e-06,0.0,0 STARLINK-3072,1 49153U 21082Z   23230.06138870  .00000922  00000-0  85039-4 0  9990,2 49153  69.9983  90.9896 0003006 266.4727  93.6088 14.98338422106951,6950.167,96.106,574.121,569.943,0.0
49153.0,STARLINK-3072,PAYLOAD,2023-08-18 20:42:01,14.98327186,0.0003101,69.9985,88.9698,266.8252,93.2553,1.1794e-05,4.8e-07,0.0,0 STARLINK-3072,1 49153U 21082Z   23230.86251702  .00000048  00000-0  11794-4 0  9994,2 49153  69.9985  88.9698 0003101 266.8252  93.2553 14.98327186107075,6950.202,96.107,574.222,569.911,0.0
49153.0,STARLINK-3072,PAYLOAD,2023-08-20 09:33:06,14.98335935,0.0003106,69.9986,85.098,268.0074,92.0729,-2.5812e-05,-4.01e-06,0.0,0 STARLINK-3072,1 49153U 21082Z   23232.39799243 -.00000401  00000-0 -25812-4 0  9992,2 49153  69.9986  85.0980 0003106 268.0074  92.0729 14.98335935107308,6950.175,96.107,574.198,569.881,0.0
49153.0,STARLINK-3072,PAYLOAD,2023-08-21 20:48:04,14.9833027,0.0003133,69.9996,81.3942,270.9529,89.1271,4.6353e-05,4.6e-06,0.0,0 STARLINK-3072,1 49153U 21082Z   23233.86671499  .00000460  00000-0  46353-4 0  9993,2 49153  69.9996  81.3942 0003133 270.9529  89.1271 14.98330270107523,6950.192,96.107,574.235,569.88,0.0
49153.0,STARLINK-3072,PAYLOAD,2023-08-23 00:02:21,14.98329446,0.000315,69.9996,78.5332,271.7499,88.3299,2.4818e-06,-6.3e-07,0.0,0 STARLINK-3072,1 49153U 21082Z   23235.00163640 -.00000063  00000-0  24818-5 0  9998,2 49153  69.9996  78.5332 0003150 271.7499  88.3299 14.98329446107690,6950.195,96.107,574.249,569.87,0.0
49153.0,STARLINK-3072,PAYLOAD,2023-08-24 17:41:50,14.98273225,0.0003005,69.9998,74.1564,266.3641,93.7174,0.0010265,0.00012158,0.0,0 STARLINK-3072,1 49153U 21082Z   23236.73739019  .00012158  00000-0  10265-2 0  9993,2 49153  69.9998  74.1564 0003005 266.3641  93.7174 14.98273225107953,6950.368,96.111,574.322,570.145,0.0
49153.0,STARLINK-3072,PAYLOAD,2023-08-25 00:06:22,14.98300845,0.0003109,69.9997,73.4825,266.9679,93.1125,0.00066022,7.788e-05,0.0,0 STARLINK-3072,1 49153U 21082Z   23237.00443267  .00007788  00000-0  66022-3 0  9997,2 49153  69.9997  73.4825 0003109 266.9679  93.1125 14.98300845107999,6950.283,96.109,574.309,569.987,0.0
49153.0,STARLINK-3072,PAYLOAD,2023-08-25 19:19:59,14.98331841,0.0003181,69.9996,71.4617,271.3828,88.6966,-3.4735e-05,-5.07e-06,0.0,0 STARLINK-3072,1 49153U 21082Z   23237.80555380 -.00000507  00000-0 -34735-4 0  9996,2 49153  69.9996  71.4617 0003181 271.3828  88.6966 14.98331841108118,6950.187,96.107,574.263,569.841,0.0
49153.0,STARLINK-3072,PAYLOAD,2023-08-25 20:56:07,14.98327975,0.0003097,69.9995,71.2933,268.9582,91.1222,6.5756e-05,6.92e-06,0.0,0 STARLINK-3072,1 49153U 21082Z   23237.87231374  .00000692  00000-0  65756-4 0  9997,2 49153  69.9995  71.2933 0003097 268.9582  91.1222 14.98327975109344,6950.199,96.107,574.217,569.912,0.0
49153.0,STARLINK-3072,PAYLOAD,2023-08-26 12:57:28,14.98330659,0.000308,69.9996,69.61,267.2708,92.8099,1.1341e-05,4.2e-07,0.0,0 STARLINK-3072,1 49153U 21082Z   23238.53991268  .00000042  00000-0  11341-4 0  9996,2 49153  69.9996  69.6100 0003080 267.2708  92.8099 14.98330659109440,6950.191,96.107,574.197,569.915,0.0
49153.0,STARLINK-3072,PAYLOAD,2023-08-26 20:58:08,14.98334378,0.0003155,69.9995,68.769,268.2781,91.8016,1.1453e-06,-7.9e-07,0.0,0 STARLINK-3072,1 49153U 21082Z   23238.87371028 -.00000079  00000-0  11453-5 0  9995,2 49153  69.9995  68.7690 0003155 268.2781  91.8016 14.98334378109493,6950.179,96.107,574.237,569.852,0.0
49153.0,STARLINK-3072,PAYLOAD,2023-08-26 22:34:16,14.98333083,0.0003111,69.9997,68.6002,267.9986,92.0817,4.1225e-05,3.99e-06,0.0,0 STARLINK-3072,1 49153U 21082Z   23238.94047018  .00000399  00000-0  41225-4 0  9995,2 49153  69.9997  68.6002 0003111 267.9986  92.0817 14.98333083108286,6950.183,96.107,574.211,569.886,0.0
49153.0,STARLINK-3072,PAYLOAD,2023-08-27 21:00:09,14.98332227,0.0003114,69.9997,66.2446,271.0237,89.0565,6.2345e-05,6.51e-06,0.0,0 STARLINK-3072,1 49153U 21082Z   23239.87510975  .00000651  00000-0  62345-4 0  9992,2 49153  69.9997  66.2446 0003114 271.0237  89.0565 14.98332227109646,6950.186,96.107,574.215,569.887,0.0
49153.0,STARLINK-3072,PAYLOAD,2023-08-27 22:36:17,14.98333956,0.0003118,69.9997,66.0762,271.1135,88.9667,5.9304e-05,6.15e-06,0.0,0 STARLINK-3072,1 49153U 21082Z   23239.94186863  .00000615  00000-0  59304-4 0  9996,2 49153  69.9997  66.0762 0003118 271.1135  88.9667 14.98333956108434,6950.181,96.107,574.213,569.879,0.0
49153.0,STARLINK-3072,PAYLOAD,2023-08-28 21:02:10,14.98332573,0.0003081,69.9999,63.7197,272.7362,87.3445,5.9872e-05,6.21e-06,0.0,0 STARLINK-3072,1 49153U 21082Z   23240.87650918  .00000621  00000-0  59872-4 0  9994,2 49153  69.9999  63.7197 0003081 272.7362  87.3445 14.98332573109791,6950.185,96.107,574.191,569.909,0.0
49153.0,STARLINK-3072,PAYLOAD,2023-08-28 22:38:18,14.98332888,0.000308,69.9999,63.5513,272.7101,87.3705,6.2333e-05,6.51e-06,0.0,0 STARLINK-3072,1 49153U 21082Z   23240.94326884  .00000651  00000-0  62333-4 0  9993,2 49153  69.9999  63.5513 0003080 272.7101  87.3705 14.98332888108585,6950.184,96.107,574.19,569.908,0.0
49153.0,STARLINK-3072,PAYLOAD,2023-08-29 19:28:03,14.9833065,0.0003068,70.0,61.3632,272.6076,87.4732,2.2185e-05,1.72e-06,0.0,0 STARLINK-3072,1 49153U 21082Z   23241.81115079  .00000172  00000-0  22185-4 0  9991,2 49153  70.0000  61.3632 0003068 272.6076  87.4732 14.98330650109931,6950.191,96.107,574.188,569.924,0.0
49153.0,STARLINK-3072,PAYLOAD,2023-08-29 22:40:19,14.98333534,0.0003063,70.0001,61.0265,272.3799,87.7009,5.276e-05,5.37e-06,0.0,0 STARLINK-3072,1 49153U 21082Z   23241.94466801  .00000537  00000-0  52760-4 0  9994,2 49153  70.0001  61.0265 0003063 272.3799  87.7009 14.98333534108736,6950.182,96.107,574.176,569.918,0.0
49153.0,STARLINK-3072,PAYLOAD,2023-08-30 17:53:56,14.98332745,0.0003147,69.9998,59.0064,270.7459,89.334,4.1058e-05,3.97e-06,0.0,0 STARLINK-3072,1 49153U 21082Z   23242.74578820  .00000397  00000-0  41058-4 0  9990,2 49153  69.9998  59.0064 0003147 270.7459  89.3340 14.98332745110079,6950.184,96.107,574.237,569.862,0.0
49153.0,STARLINK-3072,PAYLOAD,2023-08-31 11:31:25,14.98328336,0.0003123,70.0,57.1551,269.8054,90.2747,3.9906e-05,3.83e-06,0.0,0 STARLINK-3072,1 49153U 21082Z   23243.48015080  .00000383  00000-0  39906-4 0  9990,2 49153  70.0000  57.1551 0003123 269.8054  90.2747 14.98328336108968,6950.198,96.107,574.234,569.892,0.0
49153.0,STARLINK-3072,PAYLOAD,2023-09-01 11:33:26,14.98319525,0.0002789,69.9997,54.6298,269.5348,90.5491,0.00021217,2.439e-05,0.0,0 STARLINK-3072,1 49153U 21082Z   23244.48155422  .00002439  00000-0  21217-3 0  9995,2 49153  69.9997  54.6298 0002789 269.5348  90.5491 14.98319525109117,6950.225,96.108,574.029,570.152,0.0
